STARLINK-2256
1 28598C 21041AX  21325.15121891 -.00002248  00000-0 -15060-3 0  3259
2 28598  53.0540 347.5572 0001328  70.6315 218.6415 15.06404131    15
